$$SOE
2461302.500000000, A.D. 2026-Sep-19 00:00:00.0000, -3.111568634392020E+08, -2.852296780371876E+08, 1.256352221862770E+08,
2461309.500000000, A.D. 2026-Sep-26 00:00:00.0000, -3.038453802957243E+08, -2.930293004525059E+08, 1.265153622667904E+08,
2461316.500000000, A.D. 2026-Oct-03 00:00:00.0000, -2.963615285325994E+08, -3.006627095834997E+08, 1.273237320663179E+08,
2461323.500000000, A.D. 2026-Oct-10 00:00:00.0000, -2.887098718858776E+08, -3.081259009618704E+08, 1.280600097572623E+08,
2461330.500000000, A.D. 2026-Oct-17 00:00:00.0000, -2.808950634800576E+08, -3.154149945598918E+08, 1.287239208466675E+08,
2461337.500000000, A.D. 2026-Oct-24 00:00:00.0000, -2.729218415493591E+08, -3.225262369759295E+08, 1.293152380433482E+08,
2461344.500000000, A.D. 2026-Oct-31 00:00:00.0000, -2.647950250320474E+08, -3.294560036177585E+08, 1.298337810532144E+08,
2461351.500000000, A.D. 2026-Nov-07 00:00:00.0000, -2.565195087066432E+08, -3.362008008091924E+08, 1.302794162791018E+08,
2461358.500000000, A.D. 2026-Nov-14 00:00:00.0000, -2.481002576768615E+08, -3.427572669324506E+08, 1.306520564805861E+08,
2461365.500000000, A.D. 2026-Nov-21 00:00:00.0000, -2.395423030242294E+08, -3.491221719242864E+08, 1.309516606168505E+08,
2461372.500000000, A.D. 2026-Nov-28 00:00:00.0000, -2.308507396330811E+08, -3.552924181347728E+08, 1.311782337195803E+08,
2461379.500000000, A.D. 2026-Dec-05 00:00:00.0000, -2.220307225756235E+08, -3.612650432075362E+08, 1.313318264124747E+08,
2461386.500000000, A.D. 2026-Dec-12 00:00:00.0000, -2.130874619001169E+08, -3.670372218727664E+08, 1.314125343190726E+08,
2461393.500000000, A.D. 2026-Dec-19 00:00:00.0000, -2.040262177168209E+08, -3.726062666479600E+08, 1.314204975344686E+08,
2461400.500000000, A.D. 2026-Dec-26 00:00:00.0000, -1.948522957306804E+08, -3.779696283159215E+08, 1.313559001045257E+08,
2461407.500000000, A.D. 2027-Jan-02 00:00:00.0000, -1.855710429511181E+08, -3.831248963732226E+08, 1.312189694731082E+08,
2461414.500000000, A.D. 2027-Jan-09 00:00:00.0000, -1.761878434682867E+08, -3.880697994321980E+08, 1.310099758899841E+08,
2461421.500000000, A.D. 2027-Jan-16 00:00:00.0000, -1.667081142672593E+08, -3.928022055715646E+08, 1.307292317789730E+08,
2461428.500000000, A.D. 2027-Jan-23 00:00:00.0000, -1.571373010414105E+08, -3.973201226793664E+08, 1.303770910611126E+08,
2461435.500000000, A.D. 2027-Jan-30 00:00:00.0000, -1.474808738245303E+08, -4.016216988401297E+08, 1.299539484138514E+08,
2461442.500000000, A.D. 2027-Feb-06 00:00:00.0000, -1.377443220239797E+08, -4.057052224303749E+08, 1.294602384571184E+08,
2461449.500000000, A.D. 2027-Feb-13 00:00:00.0000, -1.279331493219374E+08, -4.095691207068998E+08, 1.288964350100061E+08,
2461456.500000000, A.D. 2027-Feb-20 00:00:00.0000, -1.180528708145452E+08, -4.132119576825147E+08, 1.282630505716611E+08,
2461463.500000000, A.D. 2027-Feb-27 00:00:00.0000, -1.081090109979479E+08, -4.166324345071027E+08, 1.275606356371669E+08,
2461470.500000000, A.D. 2027-Mar-06 00:00:00.0000, -9.810709958809954E+07, -4.198293904365706E+08, 1.267897777307497E+08,
2461477.500000000, A.D. 2027-Mar-13 00:00:00.0000, -8.805266677968599E+07, -4.228018023445270E+08, 1.259511004722287E+08,
2461484.500000000, A.D. 2027-Mar-20 00:00:00.0000, -7.795123907762526E+07, -4.255487836143754E+08, 1.250452627127957E+08,
2461491.500000000, A.D. 2027-Mar-27 00:00:00.0000, -6.780833550163800E+07, -4.280695829637244E+08, 1.240729576770618E+08,
2461498.500000000, A.D. 2027-Apr-03 00:00:00.0000, -5.762946396223184E+07, -4.303635832527489E+08, 1.230349120895528E+08,
2461505.500000000, A.D. 2027-Apr-10 00:00:00.0000, -4.742011774762689E+07, -4.324303002587610E+08, 1.219318852835398E+08,
2461512.500000000, A.D. 2027-Apr-17 00:00:00.0000, -3.718577210078904E+07, -4.342693814377802E+08, 1.207646682915724E+08,
2461519.500000000, A.D. 2027-Apr-24 00:00:00.0000, -2.693188080950876E+07, -4.358806047419542E+08, 1.195340829082811E+08,
2461526.500000000, A.D. 2027-May-01 00:00:00.0000, -1.666387251257338E+07, -4.372638774711329E+08, 1.182409807028216E+08,
2461533.500000000, A.D. 2027-May-08 00:00:00.0000, -6.387146417231545E+06, -4.384192344154975E+08, 1.168862420158898E+08,
2461540.500000000, A.D. 2027-May-15 00:00:00.0000, 3.892931073018351E+06, -4.393468343401845E+08, 1.154707751577986E+08,
2461547.500000000, A.D. 2027-May-22 00:00:00.0000, 1.417102725529769E+07, -4.400469574069781E+08, 1.139955157399070E+08,
2461554.500000000, A.D. 2027-May-29 00:00:00.0000, 2.444184490480877E+07, -4.405200050054116E+08, 1.124614257125225E+08,
2461561.500000000, A.D. 2027-Jun-05 00:00:00.0000, 3.470012581767719E+07, -4.407664988668451E+08, 1.108694922856927E+08,
2461568.500000000, A.D. 2027-Jun-12 00:00:00.0000, 4.494065411108749E+07, -4.407870790347741E+08, 1.092207269538485E+08,
2461575.500000000, A.D. 2027-Jun-19 00:00:00.0000, 5.515825894918042E+07, -4.405825016306834E+08, 1.075161645794131E+08,
2461582.500000000, A.D. 2027-Jun-26 00:00:00.0000, 6.534781697388204E+07, -4.401536366806392E+08, 1.057568624893184E+08,
2461589.500000000, A.D. 2027-Jul-03 00:00:00.0000, 7.550425457289518E+07, -4.395014659978024E+08, 1.039438995737191E+08,
2461596.500000000, A.D. 2027-Jul-10 00:00:00.0000, 8.562255002240048E+07, -4.386270811153358E+08, 1.020783753848896E+08,
2461603.500000000, A.D. 2027-Jul-17 00:00:00.0000, 9.569773554226638E+07, -4.375316813118981E+08, 1.001614092306562E+08,
2461610.500000000, A.D. 2027-Jul-24 00:00:00.0000, 1.057248994220725E+08, -4.362165717964393E+08, 9.819413924419600E+07,
2461617.500000000, A.D. 2027-Jul-31 00:00:00.0000, 1.156991886311501E+08, -4.346831618213179E+08, 9.617772141337571E+07,
2461624.500000000, A.D. 2027-Aug-07 00:00:00.0000, 1.256158117132029E+08, -4.329329615767257E+08, 9.411332868378407E+07,
2461631.500000000, A.D. 2027-Aug-14 00:00:00.0000, 1.354700396651695E+08, -4.309675781237040E+08, 9.200215032688721E+07,
2461638.500000000, A.D. 2027-Aug-21 00:00:00.0000, 1.452572054196337E+08, -4.287887137327033E+08, 8.984539124209522E+07,
2461645.500000000, A.D. 2027-Aug-28 00:00:00.0000, 1.549727053638785E+08, -4.263981654276447E+08, 8.764427097696970E+07,
2461652.500000000, A.D. 2027-Sep-04 00:00:00.0000, 1.646120017163958E+08, -4.237978232372260E+08, 8.540002277924459E+07,
2461659.500000000, A.D. 2027-Sep-11 00:00:00.0000, 1.741706243670645E+08, -4.209896678184088E+08, 8.311389275512151E+07,
2461666.500000000, A.D. 2027-Sep-18 00:00:00.0000, 1.836441723157416E+08, -4.179757681051847E+08, 8.078713906869690E+07,
2461673.500000000, A.D. 2027-Sep-25 00:00:00.0000, 1.930283149398313E+08, -4.147582790627415E+08, 7.842103115525787E+07,
2461680.500000000, A.D. 2027-Oct-02 00:00:00.0000, 2.023187931676672E+08, -4.113394395216073E+08, 7.601684894377866E+07,
2461687.500000000, A.D. 2027-Oct-09 00:00:00.0000, 2.115114205821310E+08, -4.077215700979782E+08, 7.357588208603798E+07,
2461694.500000000, A.D. 2027-Oct-16 00:00:00.0000, 2.206020845201214E+08, -4.039070712565581E+08, 7.109942918195920E+07,
2461701.500000000, A.D. 2027-Oct-23 00:00:00.0000, 2.295867474307714E+08, -3.998984215233980E+08, 6.858879697704452E+07,
2461708.500000000, A.D. 2027-Oct-30 00:00:00.0000, 2.384614488702197E+08, -3.956981752410836E+08, 6.604529954793386E+07,
2461715.500000000, A.D. 2027-Nov-06 00:00:00.0000, 2.472223069717494E+08, -3.913089587412790E+08, 6.347025767547624E+07,
2461722.500000000, A.D. 2027-Nov-13 00:00:00.0000, 2.558655174068100E+08, -3.867334670129138E+08, 6.086499841760960E+07,
2461729.500000000, A.D. 2027-Nov-20 00:00:00.0000, 2.643873527395571E+08, -3.819744630521918E+08, 5.823085443663198E+07,
2461736.500000000, A.D. 2027-Nov-27 00:00:00.0000, 2.727841637941179E+08, -3.770347769301572E+08, 5.556916317434889E+07,
2461743.500000000, A.D. 2027-Dec-04 00:00:00.0000, 2.810523810129986E+08, -3.719173036642953E+08, 5.288126613514520E+07,
2461750.500000000, A.D. 2027-Dec-11 00:00:00.0000, 2.891885152584965E+08, -3.666250008581679E+08, 5.016850824853824E+07,
2461757.500000000, A.D. 2027-Dec-18 00:00:00.0000, 2.971891583354041E+08, -3.611608864485388E+08, 4.743223725843416E+07,
2461764.500000000, A.D. 2027-Dec-25 00:00:00.0000, 3.050509833906562E+08, -3.555280365635606E+08, 4.467380312545468E+07,
2461771.500000000, A.D. 2028-Jan-01 00:00:00.0000, 3.127707452344227E+08, -3.497295834796113E+08, 4.189455744024403E+07,
$$EOE